{
  "type": "FeatureCollection",
  "features": [
    {
      "type": "Feature",
      "properties": {
        "norad_id": 66927,
        "name": "STARLINK-35943",
        "group": "last-30-days",
        "lat": -2.9312784377831522,
        "lon": -160.2886255936809,
        "alt_km": 330.0219371838075,
        "timestamp": "2025-12-19T06:59:42.652151+00:00",
        "meta_object_name": "STARLINK-35943",
        "meta_object_id": "2025-286C",
        "meta_epoch": "2025-12-18T22:00:00.999936",
        "meta_mean_motion": 15.81693726,
        "meta_eccentricity": 0.00010055,
        "meta_inclination": 53.1565,
        "meta_ra_of_asc_node": 19.3908,
        "meta_arg_of_pericenter": 85.6069,
        "meta_mean_anomaly": 123.3321,
        "meta_ephemeris_type": 0,
        "meta_classification_type": "U",
        "meta_norad_cat_id": 66927,
        "meta_element_set_no": 999,
        "meta_rev_at_epoch": 298,
        "meta_bstar": -0.0069932437,
        "meta_mean_motion_dot": -0.01266612,
        "meta_mean_motion_ddot": 0,
        "tle_line1": "1 66927U 25286C   25352.91667824 -.01266612  00000+0 -69932-2 0  9999",
        "tle_line2": "2 66927  53.1565  19.3908 0001005  85.6069 123.3321 15.81693726  2989"
      },
      "geometry": {
        "type": "Point",
        "coordinates": [
          -160.2886255936809,
          -2.9312784377831522
        ]
      }
    },
    {
      "type": "Feature",
      "properties": {
        "norad_id": 66928,
        "name": "STARLINK-35944",
        "group": "last-30-days",
        "lat": 0.4552275036886064,
        "lon": -162.82181999028145,
        "alt_km": 329.47866165511005,
        "timestamp": "2025-12-19T06:59:42.652161+00:00",
        "meta_object_name": "STARLINK-35944",
        "meta_object_id": "2025-286D",
        "meta_epoch": "2025-12-18T22:00:00.999936",
        "meta_mean_motion": 15.81693335,
        "meta_eccentricity": 8.599e-05,
        "meta_inclination": 53.1564,
        "meta_ra_of_asc_node": 19.3994,
        "meta_arg_of_pericenter": 85.9465,
        "meta_mean_anomaly": 118.755,
        "meta_ephemeris_type": 0,
        "meta_classification_type": "U",
        "meta_norad_cat_id": 66928,
        "meta_element_set_no": 999,
        "meta_rev_at_epoch": 298,
        "meta_bstar": -0.0069296261,
        "meta_mean_motion_dot": -0.01256337,
        "meta_mean_motion_ddot": 0,
        "tle_line1": "1 66928U 25286D   25352.91667824 -.01256337  00000+0 -69296-2 0  9996",
        "tle_line2": "2 66928  53.1564  19.3994 0000859  85.9465 118.7550 15.81693335  2981"
      },
      "geometry": {
        "type": "Point",
        "coordinates": [
          -162.82181999028145,
          0.4552275036886064
        ]
      }
    },
    {
      "type": "Feature",
      "properties": {
        "norad_id": 66929,
        "name": "STARLINK-36169",
        "group": "last-30-days",
        "lat": -4.705977399575585,
        "lon": -158.95503856566316,
        "alt_km": 330.416817313745,
        "timestamp": "2025-12-19T06:59:42.652171+00:00",
        "meta_object_name": "STARLINK-36169",
        "meta_object_id": "2025-286E",
        "meta_epoch": "2025-12-18T22:00:00.999936",
        "meta_mean_motion": 15.81692137,
        "meta_eccentricity": 9.259e-05,
        "meta_inclination": 53.1566,
        "meta_ra_of_asc_node": 19.3859,
        "meta_arg_of_pericenter": 73.8925,
        "meta_mean_anomaly": 137.2812,
        "meta_ephemeris_type": 0,
        "meta_classification_type": "U",
        "meta_norad_cat_id": 66929,
        "meta_element_set_no": 999,
        "meta_rev_at_epoch": 298,
        "meta_bstar": -0.0070947432,
        "meta_mean_motion_dot": -0.01282665,
        "meta_mean_motion_ddot": 0,
        "tle_line1": "1 66929U 25286E   25352.91667824 -.01282665  00000+0 -70947-2 0  9995",
        "tle_line2": "2 66929  53.1566  19.3859 0000925  73.8925 137.2812 15.81692137  2981"
      },
      "geometry": {
        "type": "Point",
        "coordinates": [
          -158.95503856566316,
          -4.705977399575585
        ]
      }
    },
    {
      "type": "Feature",
      "properties": {
        "norad_id": 66930,
        "name": "STARLINK-36206",
        "group": "last-30-days",
        "lat": -6.3544530534843915,
        "lon": -157.70854058318778,
        "alt_km": 330.44124735812693,
        "timestamp": "2025-12-19T06:59:42.652185+00:00",
        "meta_object_name": "STARLINK-36206",
        "meta_object_id": "2025-286F",
        "meta_epoch": "2025-12-18T22:00:00.999936",
        "meta_mean_motion": 15.81693868,
        "meta_eccentricity": 7.924e-05,
        "meta_inclination": 53.1564,
        "meta_ra_of_asc_node": 19.3813,
        "meta_arg_of_pericenter": 89.3832,
        "meta_mean_anomaly": 123.855,
        "meta_ephemeris_type": 0,
        "meta_classification_type": "U",
        "meta_norad_cat_id": 66930,
        "meta_element_set_no": 999,
        "meta_rev_at_epoch": 298,
        "meta_bstar": -0.0070919059,
        "meta_mean_motion_dot": -0.0128223,
        "meta_mean_motion_ddot": 0,
        "tle_line1": "1 66930U 25286F   25352.91667824 -.01282230  00000+0 -70919-2 0  9994",
        "tle_line2": "2 66930  53.1564  19.3813 0000792  89.3832 123.8550 15.81693868  2984"
      },
      "geometry": {
        "type": "Point",
        "coordinates": [
          -157.70854058318778,
          -6.3544530534843915
        ]
      }
    },
    {
      "type": "Feature",
      "properties": {
        "norad_id": 66931,
        "name": "STARLINK-36130",
        "group": "last-30-days",
        "lat": -8.155106233167466,
        "lon": -156.3344830086225,
        "alt_km": 330.83290889054206,
        "timestamp": "2025-12-19T06:59:42.652195+00:00",
        "meta_object_name": "STARLINK-36130",
        "meta_object_id": "2025-286G",
        "meta_epoch": "2025-12-18T22:00:00.999936",
        "meta_mean_motion": 15.81686294,
        "meta_eccentricity": 8.509e-05,
        "meta_inclination": 53.1564,
        "meta_ra_of_asc_node": 19.3768,
        "meta_arg_of_pericenter": 79.7227,
        "meta_mean_anomaly": 135.7942,
        "meta_ephemeris_type": 0,
        "meta_classification_type": "U",
        "meta_norad_cat_id": 66931,
        "meta_element_set_no": 999,
        "meta_rev_at_epoch": 298,
        "meta_bstar": -0.0071684901,
        "meta_mean_motion_dot": -0.01294028,
        "meta_mean_motion_ddot": 0,
        "tle_line1": "1 66931U 25286G   25352.91667824 -.01294028  00000+0 -71685-2 0  9994",
        "tle_line2": "2 66931  53.1564  19.3768 0000850  79.7227 135.7942 15.81686294  2982"
      },
      "geometry": {
        "type": "Point",
        "coordinates": [
          -156.3344830086225,
          -8.155106233167466
        ]
      }
    },
    {
      "type": "Feature",
      "properties": {
        "norad_id": 66932,
        "name": "STARLINK-36177",
        "group": "last-30-days",
        "lat": -9.920286446617734,
        "lon": -154.9721106754379,
        "alt_km": 331.0555273949212,
        "timestamp": "2025-12-19T06:59:42.652205+00:00",
        "meta_object_name": "STARLINK-36177",
        "meta_object_id": "2025-286H",
        "meta_epoch": "2025-12-18T22:00:00.999936",
        "meta_mean_motion": 15.81671951,
        "meta_eccentricity": 9.449e-05,
        "meta_inclination": 53.1562,
        "meta_ra_of_asc_node": 19.3721,
        "meta_arg_of_pericenter": 84.5373,
        "meta_mean_anomaly": 133.2192,
        "meta_ephemeris_type": 0,
        "meta_classification_type": "U",
        "meta_norad_cat_id": 66932,
        "meta_element_set_no": 999,
        "meta_rev_at_epoch": 298,
        "meta_bstar": -0.0071605396,
        "meta_mean_motion_dot": -0.01292055,
        "meta_mean_motion_ddot": 0,
        "tle_line1": "1 66932U 25286H   25352.91667824 -.01292055  00000+0 -71605-2 0  9995",
        "tle_line2": "2 66932  53.1562  19.3721 0000944  84.5373 133.2192 15.81671951  2984"
      },
      "geometry": {
        "type": "Point",
        "coordinates": [
          -154.9721106754379,
          -9.920286446617734
        ]
      }
    },
    {
      "type": "Feature",
      "properties": {
        "norad_id": 66933,
        "name": "STARLINK-36157",
        "group": "last-30-days",
        "lat": -11.65780440115376,
        "lon": -153.61223822179704,
        "alt_km": 331.3012610305723,
        "timestamp": "2025-12-19T06:59:42.652216+00:00",
        "meta_object_name": "STARLINK-36157",
        "meta_object_id": "2025-286J",
        "meta_epoch": "2025-12-18T22:00:00.999936",
        "meta_mean_motion": 15.81670504,
        "meta_eccentricity": 8.666e-05,
        "meta_inclination": 53.1561,
        "meta_ra_of_asc_node": 19.3676,
        "meta_arg_of_pericenter": 82.7402,
        "meta_mean_anomaly": 137.221,
        "meta_ephemeris_type": 0,
        "meta_classification_type": "U",
        "meta_norad_cat_id": 66933,
        "meta_element_set_no": 999,
        "meta_rev_at_epoch": 298,
        "meta_bstar": -0.0072283236,
        "meta_mean_motion_dot": -0.0130267,
        "meta_mean_motion_ddot": 0,
        "tle_line1": "1 66933U 25286J   25352.91667824 -.01302670  00000+0 -72283-2 0  9994",
        "tle_line2": "2 66933  53.1561  19.3676 0000866  82.7402 137.2210 15.81670504  2987"
      },
      "geometry": {
        "type": "Point",
        "coordinates": [
          -153.61223822179704,
          -11.65780440115376
        ]
      }
    }
  ]
}